{"type":"FeatureCollection","features":[{"type":"Feature","id":"06","properties":{"name":"California"},"geometry":{"type":"MultiPolygon","coordinates":[[[[-118.60312892708927,33.47833736096361],[-118.54570022320223,33.47404206251062],[-118.4451999913999,33.42851189890899],[-118.36982481754816,33.40961258571585],[-118.36623552355522,33.38813609345093],[-118.30880681966819,33.33573345232452],[-118.32675328963289,33.298793885628854],[-118.37341411154111,33.32027037789377],[-118.46673575535755,33.32628379572795],[-118.48827151931519,33.356350884898845],[-118.48827151931519,33.41992130200301],[-118.56005739917399,33.433666257052565],[-118.60312892708927,33.47833736096361]]],[[[-118.6067182210822,33.03076726216261],[-118.57441457514574,33.034203500925],[-118.49545010730107,32.933693517125164],[-118.35187834758347,32.822015757347565],[-118.38777128751286,32.825451996109955],[-118.4272535214352,32.80655268291682],[-118.48827151931519,32.844351309303086],[-118.5349323412234,32.906203607026065],[-118.58518245712457,33.0084317102071],[-118.6067182210822,33.03076726216261]]],[[[-119.05896926419263,33.491223256322556],[-119.03025491224912,33.49723667415674],[-119.02666561825617,33.46201522684226],[-119.06614785217852,33.468028644676444],[-119.05896926419263,33.491223256322556]]],[[[-119.43225583945838,34.02899462263622],[-119.40354148751487,34.014390607896075],[-119.36405925359253,34.026417443564426],[-119.36405925359253,34.00064565284652],[-119.42507725147252,33.99720941408413],[-119.45738089740897,34.01524966758667],[-119.43225583945838,34.02899462263622]]],[[[-119.57941689316893,33.279035512745125],[-119.52916677726776,33.2850489305793],[-119.45738089740897,33.25498184140841],[-119.42866654546545,33.22835099099991],[-119.47532736737367,33.21546509564095],[-119.54711324723246,33.233505349143485],[-119.57941689316893,33.279035512745125]]],[[[-119.92039982249821,34.077101965309645],[-119.85579253062531,34.07108854747547],[-119.80913170871708,34.05218923428234],[-119.75529229882298,34.05648453273532],[-119.68709571295713,34.01954496603965],[-119.61889912709125,34.01610872727727],[-119.5937740691407,34.049612055210545],[-119.52198818928188,34.03243086139861],[-119.56147042320423,33.995491294702944],[-119.66197065500654,33.98604163810638],[-119.72298865288653,33.95941078769787],[-119.87373900059,33.980028220272196],[-119.87732829458294,34.03243086139861],[-119.92039982249821,34.077101965309645]]],[[[-120.24702557585576,34.00150471253712],[-120.16806110801107,34.00837719006189],[-120.13575746207462,34.026417443564426],[-120.08909664016639,34.01954496603965],[-120.04243581825818,34.035867100161],[-120.04243581825818,33.99463223501235],[-119.97782852638525,33.983464459034586],[-119.9742392323923,33.94222959388593],[-120.12140028610285,33.8958403705937],[-120.1788289899899,33.92762557914578],[-120.24702557585576,34.00150471253712]]],[[[-120.44802603946039,34.03758521954219],[-120.39059733557335,34.05218923428234],[-120.3690615716157,34.07624290561905],[-120.34752580765806,34.046175816448155],[-120.30086498574985,34.02384026449264],[-120.3762401596016,34.018685906349056],[-120.44802603946039,34.03758521954219]]],[[[-124.21319543805437,41.99849137230372],[-123.65685486914867,41.99505513354133],[-123.62455122321222,42.00020949168491],[-123.34817558575585,41.999350431994316],[-123.14717512215121,42.00965914828148],[-123.0466748903489,42.0027866707567],[-122.6339060811608,42.004504790137894],[-122.50110220342202,42.00880008859088],[-122.16011927409274,42.007941028900284],[-121.99860104441044,42.003645730447296],[-121.44584976949768,41.99677325292252],[-121.03667025430254,41.99333701416013],[-120.32957933769336,41.99333701416013],[-119.9993642903429,41.99505513354133],[-119.9993642903429,41.99419607385073],[-119.9993642903429,40.75027764186641],[-119.99577499634995,40.72106961238612],[-119.99577499634995,40.071620486294854],[-119.9993642903429,39.73401002789027],[-120.00295358433584,39.72284225191251],[-120.00295358433584,39.33025197330973],[-120.00654287832877,39.2254466910569],[-119.9993642903429,38.99951399242992],[-119.90604264652646,38.93336639625396],[-119.49327383733836,38.64987669835698],[-119.08409432214322,38.361232642316416],[-118.857968800588,38.20488377862778],[-118.50262869528694,37.9488839908299],[-118.05396694616945,37.62501848747487],[-117.83143071860718,37.46523338502384],[-117.3755903815038,37.12676386692866],[-116.25214136171361,36.27715383292832],[-115.41224656736566,35.62512752776527],[-115.16099598785988,35.424107560165595],[-114.6333697708977,35.00145019239192],[-114.63695906489065,34.87516841787417],[-114.5795303610036,34.82620201551015],[-114.55440530305303,34.76692689685896],[-114.4718515412154,34.71280613635136],[-114.37852989739896,34.507490870298696],[-114.38570848538485,34.457665408244075],[-114.33904766347663,34.4516519904099],[-114.22777954969548,34.365746021350205],[-114.17752943379433,34.349423887228866],[-114.13804719987199,34.303034663936636],[-114.13445790587905,34.260940739097386],[-114.22419025570255,34.20510185920859],[-114.22777954969548,34.188779725087244],[-114.28879754757547,34.17073947158471],[-114.32469048750487,34.13637708396083],[-114.40724424934248,34.111464352933524],[-114.435958601286,34.08741068159681],[-114.435958601286,34.02813556294562],[-114.53645883308832,33.92848463883638],[-114.51133377513774,33.911303445024444],[-114.50415518715187,33.864055162041616],[-114.52569095110951,33.85890080389803],[-114.52928024510244,33.81508875967759],[-114.50415518715187,33.76010893947939],[-114.49697659916599,33.69653852237522],[-114.52569095110951,33.68622980608806],[-114.54004812708126,33.591733240122394],[-114.52569095110951,33.55221649435494],[-114.55799459704596,33.53159906178061],[-114.65849482884828,33.41304882447824],[-114.72669141471414,33.40531728726287],[-114.69797706277062,33.36150524304242],[-114.73028070870708,33.30566636315363],[-114.67644129881297,33.27044491583915],[-114.68361988679887,33.148458439774394],[-114.70874494474944,33.090901440504396],[-114.65849482884828,33.03248538154381],[-114.64772694686947,33.04708939628396],[-114.60106612496125,33.025612904019034],[-114.57594106701066,33.036780679996795],[-114.51851236312362,33.02990820247202],[-114.46467295322952,32.91307608455084],[-114.46826224722247,32.84521036899368],[-114.53286953909539,32.79108960848608],[-114.52569095110951,32.7567272208622],[-114.615423300933,32.73439166890668],[-114.70156635676356,32.74555944488444],[-114.71951282672826,32.71892859447594],[-116.21265912779127,32.61068707346073],[-117.12433980199802,32.5342307609976],[-117.13510768397683,32.6184186106761],[-117.16741132991329,32.67168031149311],[-117.19612568185681,32.68886150530505],[-117.24637579775796,32.66910313242132],[-117.2571436797368,32.72580107200071],[-117.25355438574385,32.786794310033095],[-117.28226873768736,32.822015757347565],[-117.24996509175091,32.87441839847398],[-117.28226873768736,33.01272700866008],[-117.3289295595956,33.121827589365886],[-117.36123320553205,33.16821681265812],[-117.50480496524965,33.33401533294332],[-117.59453731507315,33.38641797406974],[-117.63043025500255,33.430230018290175],[-117.68426966489665,33.46201522684226],[-117.7165733108331,33.460297107461066],[-117.78476989669896,33.541907778067774],[-117.8780915405154,33.59259229981299],[-117.92834165641656,33.60547819517195],[-118.00012753627536,33.65444459753597],[-118.08985988609885,33.730041850308496],[-118.17600294192941,33.76354517824178],[-118.18318152991529,33.72316937278372],[-118.25855670376703,33.703410999899994],[-118.32316399563996,33.71543783556835],[-118.35905693556936,33.736914327833276],[-118.41289634546345,33.742068685976854],[-118.4272535214352,33.77471295421954],[-118.39494987549875,33.80392098369983],[-118.39136058150581,33.8408605503955],[-118.44161069740696,33.94051147450474],[-118.4810929313293,33.995491294702944],[-118.54211092920929,34.038444279232785],[-118.66773621896218,34.03930333892338],[-118.74670068680686,34.03243086139861],[-118.8041293906939,34.00150471253712],[-118.85437950659505,34.034148980779804],[-118.95487973839738,34.04789393582935],[-119.08768361613616,34.09857845757457],[-119.13075514405143,34.10029657695576],[-119.216898199882,34.145826740557396],[-119.27791619776197,34.26695415693156],[-119.31380913769138,34.27554475383753],[-119.37482713557135,34.32107491743917],[-119.38918431154312,34.31849773836738],[-119.46097019140191,34.37433661825618],[-119.53634536525365,34.3958131105211],[-119.55788112921128,34.41299430433304],[-119.67273853698536,34.41643054309542],[-119.7301672408724,34.3958131105211],[-119.79477453274532,34.41728960278602],[-119.87373900059,34.40869900588005],[-120.00654287832877,34.46024258731587],[-120.08909664016639,34.46024258731587],[-120.14293605006048,34.473128482674824],[-120.30086498574985,34.46711506484064],[-120.47315109741098,34.44821575164751],[-120.47674039140391,34.47484660205601],[-120.52340121331213,34.53154454163541],[-120.58082991719917,34.55731633235332],[-120.62390144511444,34.55388009359093],[-120.64543720907209,34.58137000369003],[-120.59877638716387,34.704215539445386],[-120.63825862108621,34.7557591208812],[-120.60954426914267,34.857987224062235],[-120.67056226702266,34.904376447354466],[-120.63825862108621,35.00316831177311],[-120.63466932709326,35.12343666845668],[-120.69927661896618,35.1715440111301],[-120.74952673486735,35.177557428964285],[-120.76029461684615,35.15951717546175],[-120.85720555465554,35.20676545844458],[-120.89668778857788,35.24800032359323],[-120.86079484864848,35.36053714306142],[-120.86797343663436,35.40349012759127],[-120.9074556705567,35.44902029119291],[-121.00436660836607,35.46104712686126],[-121.10127754617545,35.54867121530215],[-121.16588483804837,35.635436244052435],[-121.25202789387893,35.65691273631736],[-121.31304589175892,35.71361067589675],[-121.33099236172362,35.7831945108351],[-121.38842106561066,35.82357031629316],[-121.41354612356122,35.855355524845244],[-121.4637962394624,35.885422614016136],[-121.48533200342003,35.970469523385226],[-121.50327847338473,36.00053661255612],[-121.57506435324353,36.02544934358343],[-121.62890376313763,36.11479155140551],[-121.71863611296112,36.19554316232162],[-121.83708281472815,36.25052298251982],[-121.87656504865048,36.28918066859668],[-121.905279400594,36.35790544384443],[-121.90169010660105,36.393985950849505],[-121.9411723405234,36.48075097959979],[-121.93399375253752,36.559784471134705],[-121.97347598645986,36.57352942618426],[-121.93758304653045,36.637099843288425],[-121.87297575465755,36.60445557504575],[-121.84067210872108,36.63022736576365],[-121.8155470507705,36.682630006890065],[-121.78683269882697,36.80375742326423],[-121.86220787267871,36.93175731716317],[-121.905279400594,36.96869688385883],[-121.9411723405234,36.9781465404554],[-121.97347598645986,36.95409286911868],[-122.10627986419863,36.95581098849988],[-122.20678009600095,37.014227047460466],[-122.28574456384564,37.101851135901356],[-122.33599467974679,37.1173142103321],[-122.34317326773267,37.1439450607406],[-122.40419126561264,37.195488642176414],[-122.4185484415844,37.248750342993425],[-122.40060197161971,37.35956904308043],[-122.44367349953498,37.43602535554355],[-122.45085208752087,37.48069645945459],[-122.49392361543615,37.49272329512294],[-122.51545937939379,37.52107226491264],[-122.51904867338672,37.576052085110845],[-122.50110220342202,37.599246696756964],[-122.49392361543615,37.66539429293292],[-122.51545937939379,37.780508291472906],[-122.46520926349262,37.80456196280962],[-122.40778055960558,37.811434440334395],[-122.38624479564794,37.79081700776007],[-122.36111973769738,37.715219754987544],[-122.39342338363383,37.70748821777217],[-122.35394114971149,37.6155688308783],[-122.36111973769738,37.592374219232184],[-122.264208799888,37.572615846348455],[-122.16729786207861,37.5038910711007],[-122.13858351013509,37.50818636955369],[-122.08833339423393,37.45406560904608],[-122.04526186631865,37.456642788117875],[-122.0667976302763,37.49100517574175],[-122.10986915819157,37.50732730986309],[-122.14576209812097,37.58206550294502],[-122.17088715607156,37.675703009220086],[-122.2462623299233,37.72209223251232],[-122.25344091790917,37.761608978279774],[-122.33240538575384,37.783944530235296],[-122.30010173981739,37.84751494733947],[-122.32522679776797,37.90593100630006],[-122.37906620766208,37.90507194660946],[-122.42931632356323,37.96348800557005],[-122.40060197161971,37.95575646835468],[-122.36829832568324,37.9780920203102],[-122.36829832568324,38.01245440793407],[-122.30010173981739,38.01073628855288],[-122.264208799888,38.04423961648616],[-122.30010173981739,38.10523285451854],[-122.39342338363383,38.1430314809048],[-122.44008420554205,38.1172596901869],[-122.49033432144321,38.11210533204331],[-122.48315573345732,38.07172952658526],[-122.50110220342202,38.0322127808178],[-122.44726279352793,37.98840073659736],[-122.49033432144321,37.96692424433244],[-122.50469149741497,37.92912561794617],[-122.4364949115491,37.881018275272744],[-122.46161996949968,37.86899143960439],[-122.50110220342202,37.8939041706317],[-122.47597714547145,37.83291093259932],[-122.52981655536556,37.81916597754977],[-122.56212020130201,37.85181024579245],[-122.65544184511845,37.90421288691886],[-122.70210266702667,37.8939041706317],[-122.78465642886428,37.95146116990169],[-122.82054936879368,37.99699133350333],[-122.88156736667366,38.02534030329303],[-122.9389960705607,38.0322127808178],[-123.0107819504195,38.003863811028104],[-122.96053183451833,38.11296439173391],[-122.94976395253951,38.15419925688256],[-122.9928354804548,38.23323274841748],[-122.96771042250421,38.250413942229414],[-123.02513912639125,38.3105481205712],[-123.0646213603136,38.30195752366523],[-123.06821065430654,38.35951452293522],[-123.12922865218651,38.450574850138494],[-123.20101453204532,38.49438689435894],[-123.25126464794647,38.51070902848028],[-123.33022911579116,38.565688848678484],[-123.46303299352994,38.71688335422353],[-123.51328310943109,38.74179608525085],[-123.5419974613746,38.77701753256532],[-123.65326557515574,38.854332904719044],[-123.7394086309863,38.953983828828285],[-123.68915851508514,39.02099048469484],[-123.69274780907809,39.05707099169991],[-123.74299792497925,39.16531251271512],[-123.80042662886629,39.27097685465854],[-123.82555168681685,39.36117812217122],[-123.81478380483804,39.44622503154031],[-123.76812298292982,39.5596209106991],[-123.78606945289452,39.60429201461014],[-123.78606945289452,39.66013089449894],[-123.83631956879569,39.739164386033856],[-123.85067674476744,39.83194283261832],[-123.90810544865448,39.86286898147981],[-123.92964121261213,39.910117264462635],[-124.05526650236501,40.024372203312026],[-124.0803915603156,40.029526561455604],[-124.0803915603156,40.066466128151276],[-124.10910591225911,40.10340569484694],[-124.1880703801038,40.13089560494604],[-124.36394578575785,40.260613618226174],[-124.34958860978608,40.31473437873378],[-124.36394578575785,40.374868557075565],[-124.41060660766607,40.43843897417973],[-124.37830296172962,40.52262682385823],[-124.32805284582845,40.6162643301333],[-124.17730249812497,40.84391514814148],[-124.13782026420263,40.92552581874818],[-124.11269520625206,41.02775392192921],[-124.15576673416734,41.0595391304813],[-124.15935602816027,41.1428679204692],[-124.14499885218851,41.14458603985039],[-124.10551661826617,41.229632949219486],[-124.0624450903509,41.43924351372513],[-124.0803915603156,41.54748503474034],[-124.1342309702097,41.657444675136745],[-124.1629453221532,41.73991440543405],[-124.19524896808967,41.73647816667166],[-124.25626696596964,41.78286738996389],[-124.22037402604025,41.846437807068064],[-124.20242755607555,41.94093437303372],[-124.21319543805437,41.99849137230372]]]]}}]}