{"type": "FeatureCollection", "features": [{"type": "Feature", "id": "06019", "properties": {"name": "Fresno", "fips": "06019"}, "geometry": {"type": "Polygon", "coordinates": [[[-120.54134768327683, 37.04429413663136], [-120.50904403734037, 37.00735456993569], [-120.45161533345333, 36.91113988458884], [-120.45520462744626, 36.863032541915416], [-120.3690615716157, 36.810629900789], [-120.3690615716157, 36.78485811007109], [-120.22907910589106, 36.76939503564035], [-120.07832875818758, 36.82523391552915], [-120.02807864228642, 36.81492519924198], [-119.98500711437114, 36.840696989959895], [-119.94193558645586, 36.833824512435115], [-119.88450688256881, 36.85873724346243], [-119.81272100271002, 36.85014664655646], [-119.79118523875238, 36.89567681015809], [-119.73375653486534, 36.94636133190331], [-119.74093512285123, 36.97041500324003], [-119.70145288892888, 37.0047773908639], [-119.66914924299243, 37.00907268931689], [-119.65120277302772, 37.04171695755957], [-119.61889912709125, 37.02711294281942], [-119.6045419511195, 37.07092498703987], [-119.56147042320423, 37.06662968858688], [-119.53634536525365, 37.10528737466374], [-119.56505971719716, 37.1155960909509], [-119.5507025412254, 37.144804120431196], [-119.52557748327482, 37.12848198630986], [-119.48968454334542, 37.13879070259702], [-119.48250595535956, 37.110441732807324], [-119.42866654546545, 37.16370343362433], [-119.38559501755017, 37.14995847857478], [-119.32816631366313, 37.20923359722597], [-119.33534490164901, 37.31317981978819], [-119.31380913769138, 37.35183750586505], [-119.02307632426323, 37.58550174170741], [-118.97641550235502, 37.557152771917714], [-118.91539750447504, 37.55028029439294], [-118.85079021260212, 37.47554210131101], [-118.79695080270801, 37.48842799666996], [-118.77541503875038, 37.46265620595205], [-118.76105786277861, 37.43516629585295], [-118.7861829207292, 37.38619989348893], [-118.77900433274331, 37.33551537174371], [-118.69286127691277, 37.30029392442924], [-118.66773621896218, 37.25734093989939], [-118.68568268892687, 37.229851029800294], [-118.64620045500453, 37.13964976228762], [-118.59595033910338, 37.13793164290642], [-118.53134304723046, 37.110441732807324], [-118.43802140341403, 37.05460285291852], [-118.42007493344933, 36.99189149550495], [-118.36623552355522, 36.894817750467496], [-118.36623552355522, 36.8398379302693], [-118.39136058150581, 36.832965452744524], [-118.35905693556936, 36.74448230461304], [-118.98359409034089, 36.74190512554125], [-118.98359409034089, 36.656858216172154], [-119.30304125571254, 36.660294454934544], [-119.30663054970549, 36.57352942618426], [-119.46455948539484, 36.575247545565446], [-119.57223830518305, 36.48848251681516], [-119.66555994899949, 36.41889868187681], [-119.67273853698536, 36.43092551754517], [-119.7481137108371, 36.41632150280502], [-119.75529229882298, 36.401717488064875], [-119.95988205642055, 36.40085842837428], [-119.95988205642055, 36.18179820727207], [-120.31522216172161, 35.90689910628106], [-120.3582936896369, 35.96359704586045], [-120.43366886348863, 35.96875140400403], [-120.48032968539684, 36.009986269152684], [-120.54134768327683, 36.03661711956119], [-120.59159779917798, 36.07183856687566], [-120.60236568115681, 36.101905656046554], [-120.64902650306502, 36.10791907388073], [-120.67056226702266, 36.16461701346013], [-120.62749073910739, 36.20327469953699], [-120.68133014900148, 36.251382042210416], [-120.67774085500855, 36.267704176331755], [-120.65979438504385, 36.31581151900519], [-120.59518709317092, 36.328697414364136], [-120.60236568115681, 36.48848251681516], [-120.91822355253552, 36.740187006160056], [-120.65620509105091, 36.953233809428085], [-120.59159779917798, 36.952374749737494], [-120.59877638716387, 36.998763973029725], [-120.54134768327683, 37.04429413663136]]]}}, {"type": "Feature", "id": "06099", "properties": {"name": "Stanislaus", "fips": "06099"}, "geometry": {"type": "Polygon", "coordinates": [[[-121.47097482744826, 37.48241457883578], [-121.47097482744826, 37.48155551914518], [-121.24126001190011, 37.66367617355173], [-121.14434907409074, 37.717796934059336], [-121.05820601826017, 37.750441202302014], [-121.02949166631666, 37.74099154570545], [-120.9971880203802, 37.75989085889858], [-120.92181284652847, 37.737555306943065], [-120.9254021405214, 38.07774294441944], [-120.87515202462023, 38.02877654205541], [-120.65261579705796, 37.83205187290872], [-120.3870080415804, 37.633609084380836], [-120.98283084440844, 37.39994484853848], [-120.96488437444373, 37.345824088030874], [-121.22690283592834, 37.13449540414403], [-121.28074224582245, 37.183461806508056], [-121.32740306773067, 37.16628061269612], [-121.35611741967419, 37.184320866198654], [-121.39201035960359, 37.148240359193586], [-121.41713541755416, 37.21095171660716], [-121.4566176514765, 37.24960940268402], [-121.46020694546945, 37.2831127306173], [-121.40636753557536, 37.310602640716404], [-121.42431400554005, 37.35870998338983], [-121.40995682956829, 37.38190459503594], [-121.4566176514765, 37.395649550085494], [-121.47097482744826, 37.42313946018459], [-121.47097482744826, 37.48241457883578]]]}}, {"type": "Feature", "id": "06031", "properties": {"name": "Kings", "fips": "06031"}, "geometry": {"type": "Polygon", "coordinates": [[[-120.31522216172161, 35.90689910628106], [-119.95988205642055, 36.18179820727207], [-119.95988205642055, 36.40085842837428], [-119.75529229882298, 36.401717488064875], [-119.7481137108371, 36.41632150280502], [-119.67273853698536, 36.43092551754517], [-119.66555994899949, 36.41889868187681], [-119.57223830518305, 36.48848251681516], [-119.52557748327482, 36.48848251681516], [-119.52916677726776, 36.401717488064875], [-119.47532736737367, 36.40085842837428], [-119.47532736737367, 36.26942229571295], [-119.52916677726776, 36.26942229571295], [-119.53634536525365, 36.13798616305162], [-119.53634536525365, 35.78920792866928], [-120.19318616596165, 35.78920792866928], [-120.21472192991929, 35.78920792866928], [-120.22190051790517, 35.81927501784017], [-120.25779345783457, 35.84504680855808], [-120.23984698786987, 35.86566424113241], [-120.27573992779926, 35.90604004659046], [-120.31522216172161, 35.90689910628106]]]}}, {"type": "Feature", "id": "06107", "properties": {"name": "Tulare", "fips": "06107"}, "geometry": {"type": "Polygon", "coordinates": [[[-118.35905693556936, 36.74448230461304], [-118.33393187761877, 36.70582461853618], [-118.36623552355522, 36.69207966348663], [-118.31957470164701, 36.62765018669186], [-118.28727105571055, 36.60359651535515], [-118.2908603497035, 36.55892541144411], [-118.24778882178822, 36.5340126804168], [-118.24419952779527, 36.47989191990919], [-118.21189588185881, 36.432643636926365], [-118.14369929599295, 36.421475860948604], [-118.15805647196471, 36.38797253301532], [-118.10062776807767, 36.3390061306513], [-118.12575282602825, 36.30120750426504], [-118.10062776807767, 36.20842905768057], [-118.0575562401624, 36.15860359562595], [-118.0683241221412, 36.09761035759357], [-118.05037765217651, 36.07957010409103], [-118.03243118221181, 36.009127209462086], [-118.00730612426123, 35.990227896268955], [-118.01807400624006, 35.96101986678866], [-117.99294894828947, 35.943838672976725], [-117.98218106631066, 35.8673823605136], [-118.0037168302683, 35.863087062060615], [-118.00730612426123, 35.78920792866928], [-118.0683241221412, 35.79178510774107], [-118.37700340553405, 35.790066988359875], [-118.8041293906939, 35.790066988359875], [-119.53634536525365, 35.78920792866928], [-119.53634536525365, 36.13798616305162], [-119.52916677726776, 36.26942229571295], [-119.47532736737367, 36.26942229571295], [-119.47532736737367, 36.40085842837428], [-119.52916677726776, 36.401717488064875], [-119.52557748327482, 36.48848251681516], [-119.57223830518305, 36.48848251681516], [-119.46455948539484, 36.575247545565446], [-119.30663054970549, 36.57352942618426], [-119.30304125571254, 36.660294454934544], [-118.98359409034089, 36.656858216172154], [-118.98359409034089, 36.74190512554125], [-118.35905693556936, 36.74448230461304]]]}}]}